0 SL-8 DEB *
1 14866U 79060C   13282.87384072  .00004463  00000-0  65362-3 0   434
2 14866 074.0425 078.7008 0001765 234.9267 249.9913 14.75929727569102
0 SL-8 DEB *
1 14866U 79060C   13285.86167457  .00004074  00000-0  59681-3 0   459
2 14866 074.0422 072.8558 0001734 233.2509 280.5590 14.75951169569546
0 SL-8 DEB *
1 14866U 79060C   13286.87922058  .00004308  00000-0  63068-3 0   462
2 14866 074.0424 070.8649 0001666 232.4785 285.7463 14.75957609569695
0 SL-8 DEB *
1 14866U 79060C   13288.14660060  .00006859  00000-0  10005-2 0   472
2 14866 074.0427 068.3850 0001659 233.1342 176.4652 14.75971264569883
0 SL-8 DEB *
1 14866U 79060C   13289.51496293  .00005881  00000-0  85839-3 0   482
2 14866 074.0432 065.7078 0001624 233.5039 243.8879 14.75984168570082
0 SL-8 DEB *
1 14866U 79060C   13290.72511926  .00006063  00000-0  88448-3 0   491
2 14866 074.0436 063.3398 0001533 233.2452 191.7080 14.75996169570269
0 SL-8 DEB *
1 14866U 79060C   13292.48847515  .00005249  00000-0  76623-3 0   501
2 14866 074.0442 059.8903 0001491 233.2378 197.6042 14.76012152570522
0 SL-8 DEB *
1 14866U 79060C   13293.78547278  .00005617  00000-0  81942-3 0   518
2 14866 074.0443 057.3528 0001483 234.7197 245.0637 14.76023523570718
0 SL-8 DEB *
1 14866U 79060C   13294.80867356  .00006841  00000-0  99642-3 0   521
2 14866 074.0443 055.3511 0001441 234.5820 279.9232 14.76031994570867
0 SL-8 DEB *
1 14866U 79060C   13296.14715819  .00005980  00000-0  87149-3 0   539
2 14866 074.0442 052.7323 0001403 235.9377 187.9634 14.76046409571062
